{
  "norad_id": 62174,
  "name": "STARLINK-32552",
  "history": [
    {
      "epoch": "2026-03-28T16:00:01.999584Z",
      "apogee_km": 574.6048966317294,
      "perigee_km": 569.3490814309434,
      "latitude_deg": -62.364439775151624,
      "longitude_deg": -85.8619375782653,
      "height_km": 592.8580367273639,
      "semi_major_axis_km": 6950.113989031336,
      "eccentricity": 0.00037811,
      "inclination_deg": 70.0005,
      "raan_deg": 116.4928,
      "arg_perigee_deg": 271.9081,
      "mean_anomaly_deg": 338.3859,
      "mean_motion_rev_day": 14.98355515
    },
    {
      "epoch": "2026-03-29T05:17:55.672800Z",
      "apogee_km": 575.1048054116136,
      "perigee_km": 563.2346371476342,
      "latitude_deg": 8.809596451047148e-05,
      "longitude_deg": -151.01863284677674,
      "height_km": 572.8886979725813,
      "semi_major_axis_km": 6947.306721279623,
      "eccentricity": 0.0008543,
      "inclination_deg": 70.0029,
      "raan_deg": 115.0933,
      "arg_perigee_deg": 257.4779,
      "mean_anomaly_deg": 102.5426,
      "mean_motion_rev_day": 14.9926379
    },
    {
      "epoch": "2026-03-30T04:00:01.999584Z",
      "apogee_km": 574.5979754312066,
      "perigee_km": 569.2672720298042,
      "latitude_deg": 53.79202893280235,
      "longitude_deg": -105.22865644012036,
      "height_km": 582.4849935252771,
      "semi_major_axis_km": 6950.069623730505,
      "eccentricity": 0.0003835,
      "inclination_deg": 70.0006,
      "raan_deg": 112.7099,
      "arg_perigee_deg": 268.6249,
      "mean_anomaly_deg": 150.3758,
      "mean_motion_rev_day": 14.98369862
    },
    {
      "epoch": "2026-03-30T11:44:57.317856Z",
      "apogee_km": 574.2183445902356,
      "perigee_km": 569.7587270389249,
      "latitude_deg": -3.380741746423983e-05,
      "longitude_deg": 107.77741376218505,
      "height_km": 573.9232641427282,
      "semi_major_axis_km": 6950.12553581458,
      "eccentricity": 0.00032083,
      "inclination_deg": 69.9998,
      "raan_deg": 111.8968,
      "arg_perigee_deg": 282.7679,
      "mean_anomaly_deg": 77.3121,
      "mean_motion_rev_day": 14.98351781
    }
  ]
}